{"type": "FeatureCollection", "features": [ {"type": "Feature", "properties": {"norad_id": 34117, "name": "COSMOS 2251 DEB", "group": "cosmos-2251-debris", "lat": 58.68984764378341, "lon": 10.734137311814619, "alt_km": 713.5860539604228, "timestamp": "2025-12-13T08:49:16.085359+00:00", "meta": {"OBJECT_NAME": "COSMOS 2251 DEB", "OBJECT_ID": "1993-036KN", "EPOCH": "2025-12-13T00:11:49.543584", "MEAN_MOTION": 14.40013089, "ECCENTRICITY": 0.00545368, "INCLINATION": 74.0405, "RA_OF_ASC_NODE": 343.3327, "ARG_OF_PERICENTER": 59.6265, "MEAN_ANOMALY": 301.0265, "EPHEMERIS_TYPE": 0, "CLASSIFICATION_TYPE": "U", "NORAD_CAT_ID": 34117, "ELEMENT_SET_NO": 999, "REV_AT_EPOCH": 88127, "BSTAR": 0.0010203583, "MEAN_MOTION_DOT": 3.247e-05, "MEAN_MOTION_DDOT": 0}, "tle": {"line1": "1 34117U 93036KN  25347.00821231  .00003247  00000+0  10204-2 0  9999", "line2": "2 34117  74.0405 343.3327 0054536  59.6265 301.0265 14.40013089881272"}}, "geometry": {"type": "Point", "coordinates": [10.734137311814619, 58.68984764378341]}}, {"type": "Feature", "properties": {"norad_id": 34118, "name": "COSMOS 2251 DEB", "group": "cosmos-2251-debris", "lat": -68.47619200558422, "lon": 114.90778357610507, "alt_km": 634.1272909471545, "timestamp": "2025-12-13T08:49:16.085369+00:00", "meta": {"OBJECT_NAME": "COSMOS 2251 DEB", "OBJECT_ID": "1993-036KP", "EPOCH": "2025-12-12T19:04:41.285856", "MEAN_MOTION": 14.9395644, "ECCENTRICITY": 0.00599764, "INCLINATION": 73.9523, "RA_OF_ASC_NODE": 249.193, "ARG_OF_PERICENTER": 79.5695, "MEAN_ANOMALY": 337.3867, "EPHEMERIS_TYPE": 0, "CLASSIFICATION_TYPE": "U", "NORAD_CAT_ID": 34118, "ELEMENT_SET_NO": 999, "REV_AT_EPOCH": 89177, "BSTAR": 0.0025260155, "MEAN_MOTION_DOT": 0.00027947, "MEAN_MOTION_DDOT": 0}, "tle": {"line1": "1 34118U 93036KP  25346.79492229  .00027947  00000+0  25260-2 0  9997", "line2": "2 34118  73.9523 249.1930 0059976  79.5695 337.3867 14.93956440891777"}}, "geometry": {"type": "Point", "coordinates": [114.90778357610507, -68.47619200558422]}}, {"type": "Feature", "properties": {"norad_id": 34120, "name": "COSMOS 2251 DEB", "group": "cosmos-2251-debris", "lat": 73.981362295293, "lon": -54.61253721219614, "alt_km": 799.9933896867569, "timestamp": "2025-12-13T08:49:16.085379+00:00", "meta": {"OBJECT_NAME": "COSMOS 2251 DEB", "OBJECT_ID": "1993-036KR", "EPOCH": "2025-12-13T00:07:42.055104", "MEAN_MOTION": 13.98684038, "ECCENTRICITY": 0.01819712, "INCLINATION": 73.991, "RA_OF_ASC_NODE": 215.7606, "ARG_OF_PERICENTER": 43.3824, "MEAN_ANOMALY": 22.1034, "EPHEMERIS_TYPE": 0, "CLASSIFICATION_TYPE": "U", "NORAD_CAT_ID": 34120, "ELEMENT_SET_NO": 999, "REV_AT_EPOCH": 85984, "BSTAR": 0.00047345544, "MEAN_MOTION_DOT": 7.6e-06, "MEAN_MOTION_DDOT": 0}, "tle": {"line1": "1 34120U 93036KR  25347.00534786  .00000760  00000+0  47346-3 0  9994", "line2": "2 34120  73.9910 215.7606 0181971  43.3824  22.1034 13.98684038859845"}}, "geometry": {"type": "Point", "coordinates": [-54.61253721219614, 73.981362295293]}}, {"type": "Feature", "properties": {"norad_id": 34121, "name": "COSMOS 2251 DEB", "group": "cosmos-2251-debris", "lat": -68.07664425499728, "lon": 50.59428937887859, "alt_km": 759.9931472014323, "timestamp": "2025-12-13T08:49:16.085390+00:00", "meta": {"OBJECT_NAME": "COSMOS 2251 DEB", "OBJECT_ID": "1993-036KS", "EPOCH": "2025-12-12T18:26:59.849664", "MEAN_MOTION": 13.91929961, "ECCENTRICITY": 0.02402792, "INCLINATION": 73.9925, "RA_OF_ASC_NODE": 97.1205, "ARG_OF_PERICENTER": 302.5609, "MEAN_ANOMALY": 223.9981, "EPHEMERIS_TYPE": 0, "CLASSIFICATION_TYPE": "U", "NORAD_CAT_ID": 34121, "ELEMENT_SET_NO": 999, "REV_AT_EPOCH": 85125, "BSTAR": 0.0017800246, "MEAN_MOTION_DOT": 2.848e-05, "MEAN_MOTION_DDOT": 0}, "tle": {"line1": "1 34121U 93036KS  25346.76874826  .00002848  00000+0  17800-2 0  9999", "line2": "2 34121  73.9925  97.1205 0240279 302.5609 223.9981 13.91929961851256"}}, "geometry": {"type": "Point", "coordinates": [50.59428937887859, -68.07664425499728]}}, {"type": "Feature", "properties": {"norad_id": 34122, "name": "COSMOS 2251 DEB", "group": "cosmos-2251-debris", "lat": -18.579085812501663, "lon": 111.90515378603477, "alt_km": 631.7631845787819, "timestamp": "2025-12-13T08:49:16.085400+00:00", "meta": {"OBJECT_NAME": "COSMOS 2251 DEB", "OBJECT_ID": "1993-036KT", "EPOCH": "2025-12-12T14:55:44.173056", "MEAN_MOTION": 14.65048803, "ECCENTRICITY": 0.00843087, "INCLINATION": 74.0358, "RA_OF_ASC_NODE": 118.8604, "ARG_OF_PERICENTER": 15.7585, "MEAN_ANOMALY": 355.1935, "EPHEMERIS_TYPE": 0, "CLASSIFICATION_TYPE": "U", "NORAD_CAT_ID": 34122, "ELEMENT_SET_NO": 999, "REV_AT_EPOCH": 88683, "BSTAR": 0.001696933, "MEAN_MOTION_DOT": 9.573e-05, "MEAN_MOTION_DDOT": 0}, "tle": {"line1": "1 34122U 93036KT  25346.62203904  .00009573  00000+0  16969-2 0  9995", "line2": "2 34122  74.0358 118.8604 0084308  15.7585 355.1935 14.65048803886836"}}, "geometry": {"type": "Point", "coordinates": [111.90515378603477, -18.579085812501663]}}, {"type": "Feature", "properties": {"norad_id": 34127, "name": "COSMOS 2251 DEB", "group": "cosmos-2251-debris", "lat": 4.441035440020435, "lon": -138.5321200930964, "alt_km": 756.0973893646251, "timestamp": "2025-12-13T08:49:16.085410+00:00", "meta": {"OBJECT_NAME": "COSMOS 2251 DEB", "OBJECT_ID": "1993-036KY", "EPOCH": "2025-12-12T14:07:46.055136", "MEAN_MOTION": 14.31543357, "ECCENTRICITY": 0.01149443, "INCLINATION": 74.1796, "RA_OF_ASC_NODE": 44.1365, "ARG_OF_PERICENTER": 244.2911, "MEAN_ANOMALY": 240.1066, "EPHEMERIS_TYPE": 0, "CLASSIFICATION_TYPE": "U", "NORAD_CAT_ID": 34127, "ELEMENT_SET_NO": 999, "REV_AT_EPOCH": 86769, "BSTAR": 0.0027191861, "MEAN_MOTION_DOT": 7.758e-05, "MEAN_MOTION_DDOT": 0}, "tle": {"line1": "1 34127U 93036KY  25346.58872749  .00007758  00000+0  27192-2 0  9997", "line2": "2 34127  74.1796  44.1365 0114944 244.2911 240.1066 14.31543357867693"}}, "geometry": {"type": "Point", "coordinates": [-138.5321200930964, 4.441035440020435]}}, {"type": "Feature", "properties": {"norad_id": 34128, "name": "COSMOS 2251 DEB", "group": "cosmos-2251-debris", "lat": -0.01107122609513987, "lon": 115.44553223597482, "alt_km": 578.041543280835, "timestamp": "2025-12-13T08:49:16.085420+00:00", "meta": {"OBJECT_NAME": "COSMOS 2251 DEB", "OBJECT_ID": "1993-036KZ", "EPOCH": "2025-12-12T22:43:48.016992", "MEAN_MOTION": 15.01167777, "ECCENTRICITY": 0.00260456, "INCLINATION": 73.9991, "RA_OF_ASC_NODE": 296.3, "ARG_OF_PERICENTER": 48.5594, "MEAN_ANOMALY": 19.7866, "EPHEMERIS_TYPE": 0, "CLASSIFICATION_TYPE": "U", "NORAD_CAT_ID": 34128, "ELEMENT_SET_NO": 999, "REV_AT_EPOCH": 89170, "BSTAR": 0.002548561, "MEAN_MOTION_DOT": 0.00033035, "MEAN_MOTION_DDOT": 0}, "tle": {"line1": "1 34128U 93036KZ  25346.94708353  .00033035  00000+0  25486-2 0  9998", "line2": "2 34128  73.9991 296.3000 0026045  48.5594  19.7866 15.01167777891704"}}, "geometry": {"type": "Point", "coordinates": [115.44553223597482, -0.01107122609513987]}}, {"type": "Feature", "properties": {"norad_id": 34129, "name": "COSMOS 2251 DEB", "group": "cosmos-2251-debris", "lat": 37.48493823348344, "lon": -9.019814073643072, "alt_km": 617.99751685296, "timestamp": "2025-12-13T08:49:16.085431+00:00", "meta": {"OBJECT_NAME": "COSMOS 2251 DEB", "OBJECT_ID": "1993-036LA", "EPOCH": "2025-12-13T00:30:35.403840", "MEAN_MOTION": 14.75744784, "ECCENTRICITY": 0.00329294, "INCLINATION": 74.0356, "RA_OF_ASC_NODE": 338.9755, "ARG_OF_PERICENTER": 60.3206, "MEAN_ANOMALY": 300.1239, "EPHEMERIS_TYPE": 0, "CLASSIFICATION_TYPE": "U", "NORAD_CAT_ID": 34129, "ELEMENT_SET_NO": 999, "REV_AT_EPOCH": 61302, "BSTAR": 0.0019358353, "MEAN_MOTION_DOT": 0.00013362, "MEAN_MOTION_DDOT": 0}, "tle": {"line1": "1 34129U 93036LA  25347.02124310  .00013362  00000+0  19358-2 0  9996", "line2": "2 34129  74.0356 338.9755 0032929  60.3206 300.1239 14.75744784613029"}}, "geometry": {"type": "Point", "coordinates": [-9.019814073643072, 37.48493823348344]}}, {"type": "Feature", "properties": {"norad_id": 34136, "name": "COSMOS 2251 DEB", "group": "cosmos-2251-debris", "lat": -23.518734212730152, "lon": -131.4414646125746, "alt_km": 588.0707119664994, "timestamp": "2025-12-13T08:49:16.085442+00:00", "meta": {"OBJECT_NAME": "COSMOS 2251 DEB", "OBJECT_ID": "1993-036LH", "EPOCH": "2025-12-12T14:44:26.942208", "MEAN_MOTION": 14.80081427, "ECCENTRICITY": 0.00857607, "INCLINATION": 74.021, "RA_OF_ASC_NODE": 42.8799, "ARG_OF_PERICENTER": 165.8964, "MEAN_ANOMALY": 345.503, "EPHEMERIS_TYPE": 0, "CLASSIFICATION_TYPE": "U", "NORAD_CAT_ID": 34136, "ELEMENT_SET_NO": 999, "REV_AT_EPOCH": 90008, "BSTAR": 0.00070417895, "MEAN_MOTION_DOT": 5.651e-05, "MEAN_MOTION_DDOT": 0}, "tle": {"line1": "1 34136U 93036LH  25346.61420072  .00005651  00000+0  70418-3 0  9999", "line2": "2 34136  74.0210  42.8799 0085760 165.8964 345.5030 14.80081427900089"}}, "geometry": {"type": "Point", "coordinates": [-131.4414646125746, -23.518734212730152]}}, {"type": "Feature", "properties": {"norad_id": 34139, "name": "COSMOS 2251 DEB", "group": "cosmos-2251-debris", "lat": -53.814481152712276, "lon": 95.91312565270802, "alt_km": 700.8085702190047, "timestamp": "2025-12-13T08:49:16.085452+00:00", "meta": {"OBJECT_NAME": "COSMOS 2251 DEB", "OBJECT_ID": "1993-036LL", "EPOCH": "2025-12-12T04:27:22.339872", "MEAN_MOTION": 14.59054427, "ECCENTRICITY": 0.00425713, "INCLINATION": 74.0306, "RA_OF_ASC_NODE": 255.1192, "ARG_OF_PERICENTER": 326.0171, "MEAN_ANOMALY": 186.0941, "EPHEMERIS_TYPE": 0, "CLASSIFICATION_TYPE": "U", "NORAD_CAT_ID": 34139, "ELEMENT_SET_NO": 999, "REV_AT_EPOCH": 88141, "BSTAR": 0.0021786108, "MEAN_MOTION_DOT": 0.00010357, "MEAN_MOTION_DDOT": 0}, "tle": {"line1": "1 34139U 93036LL  25346.18567523  .00010357  00000+0  21786-2 0  9999", "line2": "2 34139  74.0306 255.1192 0042571 326.0171 186.0941 14.59054427881418"}}, "geometry": {"type": "Point", "coordinates": [95.91312565270802, -53.814481152712276]}}]}